ORBCOMM-X [-]           
1 21576U 91050C   23226.13372486  .00000371  00000+0  12606-3 0  9993
2 21576  98.4317 292.7461 0004759  67.5209 292.6484 14.42140249685296
ORBCOMM FM01 [-]        
1 23545U 95017A   23226.91307506  .00003105  00000+0  45961-3 0  9993
2 23545  69.9687 289.7373 0007904 263.4245  96.6002 14.76127931513240
ORBCOMM FM02 [-]        
1 23546U 95017B   23225.97924464  .00004144  00000+0  61835-3 0  9999
2 23546  69.9721 310.9135 0009450 256.6005 103.4089 14.75509846512710
ORBCOMM FM08 [-]        
1 25112U 97084A   23227.05812273  .00001467  00000+0  49526-3 0  9999
2 25112  45.0168 341.1342 0006867 108.7584 251.4011 14.41103665344449
ORBCOMM FM10 [-]        
1 25113U 97084B   23227.05244641  .00001562  00000+0  52490-3 0  9998
2 25113  45.0183 342.8485 0003848  80.4556 279.6728 14.41055761344433
ORBCOMM FM11 [+]        
1 25114U 97084C   23227.04981897  .00001526  00000+0  51503-3 0  9993
2 25114  45.0168 342.7267 0004605  78.8802 281.2566 14.40944786344422
ORBCOMM FM12 [-]        
1 25115U 97084D   23226.72842814  .00001421  00000+0  48282-3 0  9997
2 25115  45.0172 343.8924 0003715  81.5064 278.6206 14.40940619344389
ORBCOMM FM09 [-]        
1 25116U 97084E   23226.04112211  .00001436  00000+0  48745-3 0  9994
2 25116  45.0180 347.7871 0004614  52.8955 307.2316 14.40918492344286
